ONEWEB-0120             
1 47266U 20100J   24289.02671865  .00000155  00000+0  39564-3 0  9998
2 47266  87.8846 112.1944 0001616  79.8587 280.2723 13.12443208184698
ONEWEB-0121             
1 47267U 20100K   24289.01522494 -.00000398  00000+0 -11424-2 0  9996
2 47267  87.8838 112.1814 0001755  89.1438 270.9891 13.12443380184603
ONEWEB-0122             
1 47268U 20100L   24289.01021132 -.00000316  00000+0 -91259-3 0  9995
2 47268  87.8840 112.1870 0001759  84.3417 275.7912 13.12445995184518
ONEWEB-0123             
1 47269U 20100M   24288.77678178 -.00000639  00000+0 -18117-2 0  9995
2 47269  87.8841 112.2515 0001570  84.0389 276.0919 13.12442744184625
ONEWEB-0125             
1 47271U 20100P   24289.04767579  .00000520  00000+0  14092-2 0  9998
2 47271  87.8845 112.1550 0001320  93.8123 266.3157 13.12444640184608
ONEWEB-0126             
1 47272U 20100Q   24288.76786658 -.00000288  00000+0 -83491-3 0  9999
2 47272  87.8839 112.2118 0001623  80.9853 279.1459 13.12443678184636
